{
  "type": "FeatureCollection",
  "features": [
    {
      "type": "Feature",
      "properties": {
        "norad_id": 52912,
        "name": "GAOFEN-12 03",
        "group": "resource",
        "lat": 37.009487432295494,
        "lon": -123.65028270226303,
        "alt_km": 626.5449073294822,
        "timestamp": "2025-12-21T03:56:50.512362+00:00",
        "meta_object_name": "GAOFEN-12 03",
        "meta_object_id": "2022-069A",
        "meta_epoch": "2025-12-20T19:39:49.527072",
        "meta_mean_motion": 14.79626376,
        "meta_eccentricity": 0.0001973,
        "meta_inclination": 97.8489,
        "meta_ra_of_asc_node": 241.9813,
        "meta_arg_of_pericenter": 52.967,
        "meta_mean_anomaly": 307.1722,
        "meta_ephemeris_type": 0,
        "meta_classification_type": "U",
        "meta_norad_cat_id": 52912,
        "meta_element_set_no": 999,
        "meta_rev_at_epoch": 18823,
        "meta_bstar": 9.2716e-05,
        "meta_mean_motion_dot": 6.44e-06,
        "meta_mean_motion_ddot": 0,
        "tle_line1": "1 52912U 22069A   25354.81932323  .00000644  00000+0  92716-4 0  9990",
        "tle_line2": "2 52912  97.8489 241.9813 0001973  52.9670 307.1722 14.79626376188238"
      },
      "geometry": {
        "type": "Point",
        "coordinates": [
          -123.65028270226303,
          37.009487432295494
        ]
      }
    },
    {
      "type": "Feature",
      "properties": {
        "norad_id": 54754,
        "name": "SWOT",
        "group": "resource",
        "lat": 48.050137306196795,
        "lon": 81.46267754525819,
        "alt_km": 888.5260894327466,
        "timestamp": "2025-12-21T03:56:50.512371+00:00",
        "meta_object_name": "SWOT",
        "meta_object_id": "2022-173A",
        "meta_epoch": "2025-12-20T18:45:09.175680",
        "meta_mean_motion": 14.00167977,
        "meta_eccentricity": 3.56e-05,
        "meta_inclination": 77.6109,
        "meta_ra_of_asc_node": 276.1346,
        "meta_arg_of_pericenter": 91.3101,
        "meta_mean_anomaly": 268.8091,
        "meta_ephemeris_type": 0,
        "meta_classification_type": "U",
        "meta_norad_cat_id": 54754,
        "meta_element_set_no": 999,
        "meta_rev_at_epoch": 15418,
        "meta_bstar": 5.9072e-06,
        "meta_mean_motion_dot": 6e-08,
        "meta_mean_motion_ddot": 0,
        "tle_line1": "1 54754U 22173A   25354.78135620  .00000006  00000+0  59072-5 0  9994",
        "tle_line2": "2 54754  77.6109 276.1346 0000356  91.3101 268.8091 14.00167977154180"
      },
      "geometry": {
        "type": "Point",
        "coordinates": [
          81.46267754525819,
          48.050137306196795
        ]
      }
    },
    {
      "type": "Feature",
      "properties": {
        "norad_id": 57654,
        "name": "GAOFEN-12 04",
        "group": "resource",
        "lat": -29.786573680444565,
        "lon": 86.22787777239151,
        "alt_km": 636.758289382351,
        "timestamp": "2025-12-21T03:56:50.512380+00:00",
        "meta_object_name": "GAOFEN-12 04",
        "meta_object_id": "2023-123A",
        "meta_epoch": "2025-12-20T20:30:34.892064",
        "meta_mean_motion": 14.79720855,
        "meta_eccentricity": 0.0001225,
        "meta_inclination": 97.9127,
        "meta_ra_of_asc_node": 270.4888,
        "meta_arg_of_pericenter": 77.5399,
        "meta_mean_anomaly": 282.5949,
        "meta_ephemeris_type": 0,
        "meta_classification_type": "U",
        "meta_norad_cat_id": 57654,
        "meta_element_set_no": 999,
        "meta_rev_at_epoch": 12625,
        "meta_bstar": 0.00012343,
        "meta_mean_motion_dot": 8.76e-06,
        "meta_mean_motion_ddot": 0,
        "tle_line1": "1 57654U 23123A   25354.85457051  .00000876  00000+0  12343-3 0  9998",
        "tle_line2": "2 57654  97.9127 270.4888 0001225  77.5399 282.5949 14.79720855126254"
      },
      "geometry": {
        "type": "Point",
        "coordinates": [
          86.22787777239151,
          -29.786573680444565
        ]
      }
    },
    {
      "type": "Feature",
      "properties": {
        "norad_id": 59065,
        "name": "PARS 1",
        "group": "resource",
        "lat": -55.06898806548605,
        "lon": -22.903182241516824,
        "alt_km": 451.51979552775083,
        "timestamp": "2025-12-21T03:56:50.512389+00:00",
        "meta_object_name": "PARS 1",
        "meta_object_id": "2024-039Q",
        "meta_epoch": "2025-12-20T21:57:20.490336",
        "meta_mean_motion": 15.41145697,
        "meta_eccentricity": 0.0012012,
        "meta_inclination": 97.4642,
        "meta_ra_of_asc_node": 326.0217,
        "meta_arg_of_pericenter": 47.3738,
        "meta_mean_anomaly": 312.8519,
        "meta_ephemeris_type": 0,
        "meta_classification_type": "U",
        "meta_norad_cat_id": 59065,
        "meta_element_set_no": 999,
        "meta_rev_at_epoch": 10114,
        "meta_bstar": 0.00020229,
        "meta_mean_motion_dot": 8.314e-05,
        "meta_mean_motion_ddot": 0,
        "tle_line1": "1 59065U 24039Q   25354.91482049  .00008314  00000+0  20229-3 0  9992",
        "tle_line2": "2 59065  97.4642 326.0217 0012012  47.3738 312.8519 15.41145697101147"
      },
      "geometry": {
        "type": "Point",
        "coordinates": [
          -22.903182241516824,
          -55.06898806548605
        ]
      }
    },
    {
      "type": "Feature",
      "properties": {
        "norad_id": 59371,
        "name": "RESURS-P 4",
        "group": "resource",
        "lat": 4.5253571600649725,
        "lon": 121.89978737842334,
        "alt_km": 472.1852232019519,
        "timestamp": "2025-12-21T03:56:50.512399+00:00",
        "meta_object_name": "RESURS-P 4",
        "meta_object_id": "2024-061A",
        "meta_epoch": "2025-12-20T20:54:53.564256",
        "meta_mean_motion": 15.32144169,
        "meta_eccentricity": 9.82e-05,
        "meta_inclination": 97.2558,
        "meta_ra_of_asc_node": 301.0349,
        "meta_arg_of_pericenter": 62.3987,
        "meta_mean_anomaly": 297.7355,
        "meta_ephemeris_type": 0,
        "meta_classification_type": "U",
        "meta_norad_cat_id": 59371,
        "meta_element_set_no": 999,
        "meta_rev_at_epoch": 9645,
        "meta_bstar": 9.0423e-05,
        "meta_mean_motion_dot": 2.73e-05,
        "meta_mean_motion_ddot": 0,
        "tle_line1": "1 59371U 24061A   25354.87145329  .00002730  00000+0  90423-4 0  9999",
        "tle_line2": "2 59371  97.2558 301.0349 0000982  62.3987 297.7355 15.32144169 96455"
      },
      "geometry": {
        "type": "Point",
        "coordinates": [
          121.89978737842334,
          4.5253571600649725
        ]
      }
    },
    {
      "type": "Feature",
      "properties": {
        "norad_id": 59625,
        "name": "LEGION 1",
        "group": "resource",
        "lat": -70.39865213882102,
        "lon": 91.5080734790127,
        "alt_km": 521.1013330643636,
        "timestamp": "2025-12-21T03:56:50.512408+00:00",
        "meta_object_name": "LEGION 1",
        "meta_object_id": "2024-081A",
        "meta_epoch": "2025-12-20T18:45:44.478720",
        "meta_mean_motion": 15.16551215,
        "meta_eccentricity": 0.0003621,
        "meta_inclination": 97.5208,
        "meta_ra_of_asc_node": 69.3519,
        "meta_arg_of_pericenter": 280.7426,
        "meta_mean_anomaly": 79.34,
        "meta_ephemeris_type": 0,
        "meta_classification_type": "U",
        "meta_norad_cat_id": 59625,
        "meta_element_set_no": 999,
        "meta_rev_at_epoch": 9049,
        "meta_bstar": 0.0001611,
        "meta_mean_motion_dot": 3.075e-05,
        "meta_mean_motion_ddot": 0,
        "tle_line1": "1 59625U 24081A   25354.78176480  .00003075  00000+0  16110-3 0  9998",
        "tle_line2": "2 59625  97.5208  69.3519 0003621 280.7426  79.3400 15.16551215 90491"
      },
      "geometry": {
        "type": "Point",
        "coordinates": [
          91.5080734790127,
          -70.39865213882102
        ]
      }
    },
    {
      "type": "Feature",
      "properties": {
        "norad_id": 59626,
        "name": "LEGION 2",
        "group": "resource",
        "lat": 70.22970744106934,
        "lon": -88.61480678488273,
        "alt_km": 512.7675399890722,
        "timestamp": "2025-12-21T03:56:50.512417+00:00",
        "meta_object_name": "LEGION 2",
        "meta_object_id": "2024-081B",
        "meta_epoch": "2025-12-20T17:58:11.769312",
        "meta_mean_motion": 15.16565034,
        "meta_eccentricity": 0.0005634,
        "meta_inclination": 97.5211,
        "meta_ra_of_asc_node": 69.407,
        "meta_arg_of_pericenter": 258.6698,
        "meta_mean_anomaly": 101.3902,
        "meta_ephemeris_type": 0,
        "meta_classification_type": "U",
        "meta_norad_cat_id": 59626,
        "meta_element_set_no": 999,
        "meta_rev_at_epoch": 9049,
        "meta_bstar": 0.00017967,
        "meta_mean_motion_dot": 3.44e-05,
        "meta_mean_motion_ddot": 0,
        "tle_line1": "1 59626U 24081B   25354.74874733  .00003440  00000+0  17967-3 0  9998",
        "tle_line2": "2 59626  97.5211  69.4070 0005634 258.6698 101.3902 15.16565034 90497"
      },
      "geometry": {
        "type": "Point",
        "coordinates": [
          -88.61480678488273,
          70.22970744106934
        ]
      }
    }
  ]
}